#aV2024  5 20  0  0  0.00000000     288 DD+AD WGS84 FIT  NGA
## 2315  86400.00000000   300.00000000 60450 0.0000000000000
+   31     2  3  4  5  6  7  8  9 10 11 12 13 14 15 16 17 18
+         19 20 21 22 23 24 25 26 27 28 29 30 31 32  0  0  0
+          0  0  0  0  0  0  0  0  0  0  0  0  0  0  0  0  0
+          0  0  0  0  0  0  0  0  0  0  0  0  0  0  0  0  0
+          0  0  0  0  0  0  0  0  0  0  0  0  0  0  0  0  0
++         2  2  2  2  2  2  2  2  2  2  2  2  2  2  2  2  2
++         2  2  2  2  2  2  2  2  2  2  2  2  2  2  0  0  0
++         0  0  0  0  0  0  0  0  0  0  0  0  0  0  0  0  0
++         0  0  0  0  0  0  0  0  0  0  0  0  0  0  0  0  0
++         0  0  0  0  0  0  0  0  0  0  0  0  0  0  0  0  0
%c cc cc ccc ccc cccc cccc cccc cccc ccccc ccccc ccccc ccccc
%c cc cc ccc ccc cccc cccc cccc cccc ccccc ccccc ccccc ccccc
%f  0.0000000  0.000000000  0.00000000000  0.000000000000000
%f  0.0000000  0.000000000  0.00000000000  0.000000000000000
%i    0    0    0    0      0      0      0      0         0
%i    0    0    0    0      0      0      0      0         0
/*      NGA, ST. LOUIS,MO.                                  
/*   EPHEMERIS COMPUTED FROM 2 DAYS OF DATA                 
/*   EPOCHA v9 SMOOTHER                                     
/*   G2296 IERS2010 SATIGS SATAPC                           
*  2024  5 20 21 30  0.00000000
P  2  -5145.316820  17147.902600 -19044.575407   -432.639789                    
V  2 -23359.360411   9796.699355  15045.740472      0.068270                    
P  3   7953.810315  19941.028874 -15874.586654    373.462094                    
V  3 -16224.387786 -11379.858386 -22524.649201      0.192810                    
P  4   -656.974923  25811.495609   5940.482944    365.472542                    
V  4  -4055.959490   6915.532393 -30716.358570      0.083619                    
P  5   6814.318221 -13382.034965  21723.291663   -173.417510                    
V  5  22821.803786  16198.378657   2883.143063     -0.013585                    
P  6  25248.212720  -4480.622906  -7078.919240    262.757377                    
V  6  -7842.984068   4771.760241 -30622.094546     -0.198963                    
P  7  15237.422750   9557.975190  20198.956311   -133.117308                    
V  7 -22433.439727   9709.801738  12189.930628     -0.080844                    
P  8  -6244.605162  25142.025294   4602.454429    188.751054                    
V  8  -2640.163427  -6410.621330  31129.503554      0.199201                    
P  9   8945.679636  19089.608965  16043.482426    203.788041                    
V  9  -4582.012289  20132.734370 -21344.108720      0.141950                    
P 10 -22628.329163  -8864.275194 -10884.298560    -26.654879                    
V 10  -9906.801074 -10010.430781  27899.733362     -0.068502                    
P 11  22866.673845 -12063.886532   5988.307045   -666.950959                    
V 11   8011.268053     34.417873 -30685.722532     -0.090850                    
P 12  -4663.522343 -20234.171624 -16874.050382   -507.083567                    
V 12  16474.937500  12907.852308 -20322.577517     -0.032965                    
P 13  13536.262729 -20027.569139  10524.617672    652.003442                    
V 13  -1639.560340  13850.977037  28146.606881      0.028592                    
P 14  22630.660848  11857.416300  -7613.319415    405.621429                    
V 14   5536.242713   8451.197706  29280.536399      0.092913                    
P 15   2949.747073 -25892.928678   4053.398893    161.199916                    
V 15   3803.762763   5797.712225  30728.634034      0.041307                    
P 16 -11467.734229   9798.322281  21543.206017   -286.394649                    
V 16 -20390.065728 -19384.686724  -1569.429916      0.100534                    
P 17  13793.222940   5993.854975 -21463.235835    704.510612                    
V 17  -6314.648148  27532.489856   3716.473850     -0.036723                    
P 18 -15584.200170  -8570.428732  19800.090687   -613.572266                    
V 18  23143.478346  -9547.718778  13899.740178     -0.056162                    
P 19  15927.268488  -3694.285380 -21030.868084    484.864831                    
V 19  -5800.050413  25727.263439  -9370.235158      0.053350                    
P 20  16241.165267  -7133.752015  19786.005254    375.864091                    
V 20  21385.322429  13119.013210 -13009.523145     -0.013782                    
P 21  -9990.348952  17612.798239 -16180.702793    120.444206                    
V 21 -20653.548890   7420.281771  21279.869459     -0.022573                    
P 22  20969.829659   6114.451916 -14484.599107    -16.361446                    
V 22  12232.826090  15042.491128  23672.693532     -0.052200                    
P 23 -21117.254268 -16284.393117    409.426883    230.362257                    
V 23   1628.855322  -1348.828308  32026.344455      0.093780                    
P 24   6269.741492 -18393.570166 -18346.261632   -471.377751                    
V 24  21172.593678  -8428.354387  16468.677477     -0.033100                    
P 25 -14116.147137 -20280.140784 -10420.981629    496.061793                    
V 25  11542.333974   5781.218193 -27537.752373      0.006458                    
P 26 -21071.738031    307.898203  16226.124878    149.884346                    
V 26 -16002.286449 -13522.617432 -19968.203833     -0.057423                    
P 27 -12591.765527  18128.187313  14167.333368    -24.901217                    
V 27    219.601631 -18817.247664  24204.399938     -0.017268                    
P 28 -24585.651254   3330.482382  -9489.716043   -252.621566                    
V 28  10064.830465  -7067.309840 -28589.913319     -0.164842                    
P 29  -5198.428339 -21545.811845  14494.445711   -597.659496                    
V 29   6068.935118 -17610.243836 -24023.014490      0.014875                    
P 30  23114.512800   1586.845747  13369.606106   -387.290627                    
V 30 -14614.509299   8484.866050  24261.653915      0.059461                    
P 31 -24919.962964   9743.014378    842.125765   -227.755264                    
V 31  -2158.893896  -2083.754674 -31324.667181      0.001361                    
P 32 -14830.395079  -2921.602826 -21630.287589   -618.012707                    
V 32   3922.736646 -27693.227957    846.307167      0.005014                    
EOF
